ONEWEB-0412             
1 50489U 21132W   23284.38677900  .00000106  00000+0  23531-3 0  9997
2 50489  87.9222 170.3388 0002300  81.3282 278.8110 13.18686241 92522
ONEWEB-0413             
1 50490U 21132X   23284.77037134  .00000026  00000+0  34291-4 0  9998
2 50490  87.9285 170.2637 0002142  76.6509 283.4862 13.18685081 93801
ONEWEB-0414             
1 50491U 21132Y   23284.45315866 -.00000399  00000+0 -10450-2 0  9999
2 50491  87.9280 170.3149 0001936  86.1251 274.0103 13.18685393 92502
ONEWEB-0417             
1 50492U 21132Z   23284.76404951 -.00000001  00000+0 -34814-4 0  9990
2 50492  87.9224 170.2779 0001438  83.2143 276.9153 13.18687348 93817
ONEWEB-0418             
1 50493U 21132AA  23284.39836317  .00000041  00000+0  71253-4 0  9995
2 50493  87.9283 170.3259 0001373  93.3337 266.7952 13.18684161 92534
ONEWEB-0419             
1 50494U 21132AB  23284.18443125 -.00000244  00000+0 -65129-3 0  9995
2 50494  87.9279 170.3922 0001292  73.8070 286.3205 13.18686819 93716
ONEWEB-0420             
1 50495U 21132AC  23284.45423078  .00000037  00000+0  61169-4 0  9990
2 50495  87.9279 170.3472 0001777  63.2605 296.8709 13.18688193 93758
ONEWEB-0421             
1 50496U 21132AD  23284.75140740  .00000067  00000+0  13687-3 0  9990
2 50496  87.9222 170.2700 0002126  83.6078 276.5296 13.18686025 93836
